{
  "norad_id": 57919,
  "name": "STARLINK-30496",
  "history": [
    {
      "epoch": "2026-05-04T16:44:27.021408Z",
      "apogee_km": 483.4092963373814,
      "perigee_km": 482.7108264765311,
      "latitude_deg": 1.3895122332403921e-05,
      "longitude_deg": -104.78802131532464,
      "height_km": 482.4975050868596,
      "semi_major_axis_km": 6861.197061406956,
      "eccentricity": 5.09e-05,
      "inclination_deg": 42.9984,
      "raan_deg": 8.9077,
      "arg_perigee_deg": 345.4029,
      "mean_anomaly_deg": 14.6808,
      "mean_motion_rev_day": 15.27576338
    },
    {
      "epoch": "2026-05-05T16:16:47.160768Z",
      "apogee_km": 483.898814521378,
      "perigee_km": 482.16979935203017,
      "latitude_deg": -3.1921350104906405e-05,
      "longitude_deg": -104.37769727549552,
      "height_km": 482.65982835943646,
      "semi_major_axis_km": 6861.171306936703,
      "eccentricity": 0.000126,
      "inclination_deg": 43.0032,
      "raan_deg": 3.3687,
      "arg_perigee_deg": 280.088,
      "mean_anomaly_deg": 79.9829,
      "mean_motion_rev_day": 15.27584939
    },
    {
      "epoch": "2026-05-06T07:58:21.711936Z",
      "apogee_km": 483.75784763094725,
      "perigee_km": 482.3728453252861,
      "latitude_deg": -6.541407194098842e-06,
      "longitude_deg": 15.88997830982734,
      "height_km": 482.6816396886492,
      "semi_major_axis_km": 6861.202346478116,
      "eccentricity": 0.00010093,
      "inclination_deg": 43.0029,
      "raan_deg": 359.6748,
      "arg_perigee_deg": 283.3925,
      "mean_anomaly_deg": 76.6814,
      "mean_motion_rev_day": 15.27574573
    },
    {
      "epoch": "2026-05-07T15:21:29.175264Z",
      "apogee_km": 484.15308566034855,
      "perigee_km": 481.8052117142679,
      "latitude_deg": -4.1522632195504524e-05,
      "longitude_deg": -103.56491379255665,
      "height_km": 482.7527281738673,
      "semi_major_axis_km": 6861.116148687308,
      "eccentricity": 0.0001711,
      "inclination_deg": 43.0042,
      "raan_deg": 352.29,
      "arg_perigee_deg": 270.1876,
      "mean_anomaly_deg": 89.8779,
      "mean_motion_rev_day": 15.2760336
    },
    {
      "epoch": "2026-05-08T21:10:27.657120Z",
      "apogee_km": 483.7642113111724,
      "perigee_km": 482.33434009131634,
      "latitude_deg": 4.765409575267116e-05,
      "longitude_deg": 160.95199349879238,
      "height_km": 482.79792854913586,
      "semi_major_axis_km": 6861.186275701244,
      "eccentricity": 0.0001042,
      "inclination_deg": 43.0018,
      "raan_deg": 345.275,
      "arg_perigee_deg": 272.2399,
      "mean_anomaly_deg": 87.8334,
      "mean_motion_rev_day": 15.2757994
    },
    {
      "epoch": "2026-05-09T20:42:48.931776Z",
      "apogee_km": 484.0925770145068,
      "perigee_km": 482.0081482937312,
      "latitude_deg": -3.528922764983311e-07,
      "longitude_deg": 161.35727351735395,
      "height_km": 482.7549941119172,
      "semi_major_axis_km": 6861.187362654118,
      "eccentricity": 0.0001519,
      "inclination_deg": 43.0041,
      "raan_deg": 339.7357,
      "arg_perigee_deg": 273.9962,
      "mean_anomaly_deg": 86.0716,
      "mean_motion_rev_day": 15.27579577
    },
    {
      "epoch": "2026-05-09T23:51:07.687872Z",
      "apogee_km": 484.16738953342247,
      "perigee_km": 481.9342101283337,
      "latitude_deg": -1.7337248765478394e-05,
      "longitude_deg": 113.41150935375585,
      "height_km": 482.70656207295957,
      "semi_major_axis_km": 6861.187799830878,
      "eccentricity": 0.00016274,
      "inclination_deg": 43.0037,
      "raan_deg": 338.997,
      "arg_perigee_deg": 276.2494,
      "mean_anomaly_deg": 83.8172,
      "mean_motion_rev_day": 15.27579431
    },
    {
      "epoch": "2026-05-11T19:47:30.319008Z",
      "apogee_km": 484.0946709430691,
      "perigee_km": 482.0212178308757,
      "latitude_deg": 2.666957150112375e-07,
      "longitude_deg": 162.17259454404265,
      "height_km": 482.7556779863554,
      "semi_major_axis_km": 6861.194944386972,
      "eccentricity": 0.0001511,
      "inclination_deg": 43.0035,
      "raan_deg": 328.6569,
      "arg_perigee_deg": 274.3956,
      "mean_anomaly_deg": 85.6723,
      "mean_motion_rev_day": 15.27577045
    },
    {
      "epoch": "2026-05-12T19:19:52.042080Z",
      "apogee_km": 483.4429213908352,
      "perigee_km": 482.65800154524277,
      "latitude_deg": -1.1688463059539049e-05,
      "longitude_deg": 162.57764191507752,
      "height_km": 482.80432412144074,
      "semi_major_axis_km": 6861.187461468038,
      "eccentricity": 5.72e-05,
      "inclination_deg": 43.0013,
      "raan_deg": 323.1192,
      "arg_perigee_deg": 273.2508,
      "mean_anomaly_deg": 86.8278,
      "mean_motion_rev_day": 15.27579544
    },
    {
      "epoch": "2026-05-12T19:19:52.042944Z",
      "apogee_km": 483.4427155552112,
      "perigee_km": 482.65820738086586,
      "latitude_deg": 5.4566859046728526e-05,
      "longitude_deg": 162.57770895953556,
      "height_km": 482.80432689370383,
      "semi_major_axis_km": 6861.187461468038,
      "eccentricity": 5.717e-05,
      "inclination_deg": 43.0013,
      "raan_deg": 323.1192,
      "arg_perigee_deg": 273.2509,
      "mean_anomaly_deg": 86.8278,
      "mean_motion_rev_day": 15.27579544
    },
    {
      "epoch": "2026-05-14T21:32:51.056160Z",
      "apogee_km": 484.2481409732327,
      "perigee_km": 481.78265447063495,
      "latitude_deg": -2.527761379936039e-05,
      "longitude_deg": 115.45232239148473,
      "height_km": 482.6379610908801,
      "semi_major_axis_km": 6861.152397721933,
      "eccentricity": 0.00017967,
      "inclination_deg": 43.0034,
      "raan_deg": 311.3021,
      "arg_perigee_deg": 277.2161,
      "mean_anomaly_deg": 82.8486,
      "mean_motion_rev_day": 15.27591254
    },
    {
      "epoch": "2026-05-16T20:37:32.185920Z",
      "apogee_km": 484.0098704510383,
      "perigee_km": 482.0420889084653,
      "latitude_deg": 3.34363348657821e-05,
      "longitude_deg": 116.27077992716791,
      "height_km": 482.68347223165995,
      "semi_major_axis_km": 6861.1629796797515,
      "eccentricity": 0.0001434,
      "inclination_deg": 43.0028,
      "raan_deg": 300.2253,
      "arg_perigee_deg": 276.9793,
      "mean_anomaly_deg": 83.0896,
      "mean_motion_rev_day": 15.2758772
    }
  ]
}